{
  "type": "FeatureCollection",
  "features": [
    {
      "type": "Feature",
      "id": 1,
      "geometry": {
        "type": "Polygon",
        "coordinates": [
          [
            [
              -105.06956747352555,
              40.131270066837764
            ],
            [
              -105.07425057489735,
              40.131576966691846
            ],
            [
              -105.07906487600894,
              40.13121506688045
            ],
            [
              -105.08387917701778,
              40.13085306590487
            ],
            [
              -105.08853327803445,
              40.13081066551546
            ],
            [
              -105.09318737875624,
              40.13076816587494
            ],
            [
              -105.09789208006097,
              40.13074096491632
            ],
            [
              -105.10259678130267,
              40.13071376515966
            ],
            [
              -105.10260247139082,
              40.13019908906253
            ],
            [
              -105.10263648047955,
              40.1271224641544
            ],
            [
              -105.10267627993231,
              40.1235311635103
            ],
            [
              -105.10271667941858,
              40.1198846636295
            ],
            [
              -105.10275697904004,
              40.11623806241408
            ],
            [
              -105.10278377965643,
              40.112759662354456
            ],
            [
              -105.10281047848498,
              40.10928136148068
            ],
            [
              -105.10283717818332,
              40.10581026174044
            ],
            [
              -105.1028637778614,
              40.10233916128359
            ],
            [
              -105.10471374343587,
              40.1022160496188
            ],
            [
              -105.10763237843109,
              40.10202176091631
            ],
            [
              -105.11240087997002,
              40.10170425995933
            ],
            [
              -105.11713358103495,
              40.1017050594223
            ],
            [
              -105.1218661820302,
              40.101705759285366
            ],
            [
              -105.12665758385269,
              40.10170765941734
            ],
            [
              -105.13144908458194,
              40.10170955851175
            ],
            [
              -105.13606108520332,
              40.10169595895353
            ],
            [
              -105.1406730860994,
              40.10168245786709
            ],
            [
              -105.14534628754079,
              40.10164255779891
            ],
            [
              -105.15001958891422,
              40.10160275710657
            ],
            [
              -105.15002179624213,
              40.10109240555807
            ],
            [
              -105.15003528878961,
              40.09797335730584
            ],
            [
              -105.15005118801652,
              40.094343856346114
            ],
            [
              -105.15190135874008,
              40.09434574399675
            ],
            [
              -105.15481228859586,
              40.094348656058216
            ],
            [
              -105.15957338985666,
              40.09435325603273
            ],
            [
              -105.16425389116976,
              40.094357555397636
            ],
            [
              -105.16904689175084,
              40.09436185559584
            ],
            [
              -105.16904890417251,
              40.093833785581616
            ],
            [
              -105.16906069154754,
              40.09074035486741
            ],
            [
              -105.1690744910544,
              40.08711885420604
            ],
            [
              -105.17092467776435,
              40.08710711154975
            ],
            [
              -105.1738235928595,
              40.087088654150584
            ],
            [
              -105.17857269318269,
              40.08705845342655
            ],
            [
              -105.18326599452229,
              40.08707805356536
            ],
            [
              -105.18795919610194,
              40.08709755275072
            ],
            [
              -105.18787079634735,
              40.094370553519276
            ],
            [
              -105.20691370060466,
              40.09440965284016
            ],
            [
              -105.2069104587635,
              40.09387896018793
            ],
            [
              -105.20689140055595,
              40.0907589519531
            ],
            [
              -105.20686899963657,
              40.08710825167107
            ],
            [
              -105.2069880336345,
              40.08710896627209
            ],
            [
              -105.20872416530577,
              40.087119380918566
            ],
            [
              -105.21162930152467,
              40.0871367513956
            ],
            [
              -105.21638950256835,
              40.08716515113403
            ],
            [
              -105.22110630381106,
              40.08716485048015
            ],
            [
              -105.22582300420764,
              40.08716465056096
            ],
            [
              -105.23055940548333,
              40.08718755022676
            ],
            [
              -105.23529580679254,
              40.087210449327706
            ],
            [
              -105.24004010729652,
              40.08721624877008
            ],
            [
              -105.24478440905025,
              40.08722204882371
            ],
            [
              -105.24948590984225,
              40.08722224847073
            ],
            [
              -105.25418751082123,
              40.08722244785165
            ],
            [
              -105.25888631232192,
              40.08721524766067
            ],
            [
              -105.26358511338115,
              40.08720804721089
            ],
            [
              -105.26814541420703,
              40.08721964748347
            ],
            [
              -105.27270571479606,
              40.0872312466281
            ],
            [
              -105.27762251668611,
              40.08728174670583
            ],
            [
              -105.28208041794284,
              40.08732344596424
            ],
            [
              -105.28212821842975,
              40.09095184663645
            ],
            [
              -105.28217611884611,
              40.09458024750506
            ],
            [
              -105.28219961840787,
              40.09820674745828
            ],
            [
              -105.28222311890568,
              40.101833348281026
            ],
            [
              -105.28700572035436,
              40.10185144825738
            ],
            [
              -105.2917883216492,
              40.101869447636965
            ],
            [
              -105.29653422267918,
              40.101872347171074
            ],
            [
              -105.30128002298086,
              40.101875147098404
            ],
            [
              -105.30583692462463,
              40.10182174650121
            ],
            [
              -105.31039372616154,
              40.10176834582822
            ],
            [
              -105.31495062695649,
              40.10171494630303
            ],
            [
              -105.31950742767009,
              40.101661545808504
            ],
            [
              -105.31950028672432,
              40.10115456020529
            ],
            [
              -105.31945662759678,
              40.09805444524216
            ],
            [
              -105.31940582689714,
              40.09444734473068
            ],
            [
              -105.31935502674371,
              40.09084024429026
            ],
            [
              -105.31930422596412,
              40.08723314393367
            ],
            [
              -105.31930399968142,
              40.087233144488465
            ],
            [
              -105.3191996260092,
              40.08369404271104
            ],
            [
              -105.3190970255901,
              40.08018814305037
            ],
            [
              -105.31948202528373,
              40.076433242290484
            ],
            [
              -105.31986702455643,
              40.0726783418007
            ],
            [
              -105.3198755238798,
              40.069089941370585
            ],
            [
              -105.31988392385892,
              40.06550154105514
            ],
            [
              -105.31991392323037,
              40.06187633990585
            ],
            [
              -105.31994392206923,
              40.05825103986298
            ],
            [
              -105.3195911223984,
              40.05458753882909
            ],
            [
              -105.31923832106246,
              40.05092403855438
            ],
            [
              -105.31924192136495,
              40.04732753792972
            ],
            [
              -105.31924542051352,
              40.04373103747568
            ],
            [
              -105.31922332020129,
              40.04019143742505
            ],
            [
              -105.31920121977245,
              40.03665183700636
            ],
            [
              -105.3195259194645,
              40.03274523625404
            ],
            [
              -105.319850518637,
              40.028838535669294
            ],
            [
              -105.31985861880356,
              40.02526183484107
            ],
            [
              -105.31986681768801,
              40.02168513464185
            ],
            [
              -105.31961001802019,
              40.018077134194016
            ],
            [
              -105.31935321675532,
              40.01446913354933
            ],
            [
              -105.31923561676379,
              40.01086023359666
            ],
            [
              -105.31911811582842,
              40.00725123322697
            ],
            [
              -105.31900061622052,
              40.00364233223072
            ],
            [
              -105.31888305640476,
              40.000034682355874
            ],
            [
              -105.32074907449332,
              40.00003707578347
            ],
            [
              -105.32340501696069,
              40.00004043149927
            ],
            [
              -105.32356521683121,
              40.000040631266245
            ],
            [
              -105.32357321723362,
              39.999567064791485
            ],
            [
              -105.32357419061778,
              39.999509441553435
            ],
            [
              -105.32361721671161,
              39.996962531129604
            ],
            [
              -105.3236683153231,
              39.993938630767666
            ],
            [
              -105.32356491565223,
              39.990316530002595
            ],
            [
              -105.3234615149769,
              39.986694429599964
            ],
            [
              -105.32339441459038,
              39.982995729595174
            ],
            [
              -105.32332741377205,
              39.97929702904208
            ],
            [
              -105.3232281129528,
              39.97559252836407
            ],
            [
              -105.32315299687983,
              39.97279301059237
            ],
            [
              -105.32312871286938,
              39.9718879277382
            ],
            [
              -105.32314361269735,
              39.96828642688996
            ],
            [
              -105.32315851214452,
              39.96468492666646
            ],
            [
              -105.32317341238357,
              39.96108342618326
            ],
            [
              -105.32318831107386,
              39.95748192545124
            ],
            [
              -105.32301331115546,
              39.95391542490877
            ],
            [
              -105.32283831060549,
              39.95034882490495
            ],
            [
              -105.32292131026456,
              39.946780624273416
            ],
            [
              -105.32302760916241,
              39.94321072390992
            ],
            [
              -105.31848300880054,
              39.943060224501245
            ],
            [
              -105.31393840739103,
              39.94290982473984
            ],
            [
              -105.30922940644199,
              39.94280162463129
            ],
            [
              -105.30452040523251,
              39.94269352480099
            ],
            [
              -105.29989110453015,
              39.942610725677355
            ],
            [
              -105.29526200321877,
              39.94253212578037
            ],
            [
              -105.28589920046365,
              39.94235852663591
            ],
            [
              -105.28127239977744,
              39.94233602670155
            ],
            [
              -105.27664569861291,
              39.94231352658782
            ],
            [
              -105.27654959897067,
              39.938703926163036
            ],
            [
              -105.27645339840906,
              39.935094226202224
            ],
            [
              -105.27645399826721,
              39.93505442643565
            ],
            [
              -105.27650389717734,
              39.931534825745736
            ],
            [
              -105.27655439748777,
              39.92797552524659
            ],
            [
              -105.27650079686887,
              39.92439262463529
            ],
            [
              -105.27644719587559,
              39.920809723945204
            ],
            [
              -105.27639959598501,
              39.91726222372023
            ],
            [
              -105.27635199537968,
              39.913714622689405
            ],
            [
              -105.27631099501343,
              39.910098022714315
            ],
            [
              -105.27626989479162,
              39.906481422438915
            ],
            [
              -105.27622889437112,
              39.902864921323236
            ],
            [
              -105.27618789381135,
              39.899248321058735
            ],
            [
              -105.27614959329102,
              39.89564282046813
            ],
            [
              -105.27611119232179,
              39.892037420538344
            ],
            [
              -105.27607289265053,
              39.8884319199299
            ],
            [
              -105.27603459223205,
              39.88482641933194
            ],
            [
              -105.27601419175338,
              39.88119281843484
            ],
            [
              -105.2759937910349,
              39.87755921840753
            ],
            [
              -105.27597349060456,
              39.87392561765464
            ],
            [
              -105.27595308972698,
              39.870291917642
            ],
            [
              -105.27595378960132,
              39.86666831678042
            ],
            [
              -105.27595448906602,
              39.86304481595308
            ],
            [
              -105.27595518875818,
              39.85942121613853
            ],
            [
              -105.27595588836357,
              39.85579761551839
            ],
            [
              -105.27602458757809,
              39.85216171470275
            ],
            [
              -105.27609328782019,
              39.8485258139511
            ],
            [
              -105.27616188711839,
              39.84489001395511
            ],
            [
              -105.27623058676448,
              39.8412542133411
            ],
            [
              -105.2763159867285,
              39.83762971233469
            ],
            [
              -105.2764013856917,
              39.83400531233275
            ],
            [
              -105.27648678599668,
              39.83038101155365
            ],
            [
              -105.27657218509316,
              39.826756510996645
            ],
            [
              -105.27655908489051,
              39.823117510937934
            ],
            [
              -105.27654608414278,
              39.81947851036123
            ],
            [
              -105.27653298428963,
              39.81583950980533
            ],
            [
              -105.27651998387809,
              39.812200509661736
            ],
            [
              -105.27648158331738,
              39.80859150876751
            ],
            [
              -105.27644318287317,
              39.804982608166576
            ],
            [
              -105.27640488243385,
              39.80137360812043
            ],
            [
              -105.2763664820095,
              39.79776460733449
            ],
            [
              -105.27631578108688,
              39.79413540726357
            ],
            [
              -105.27626508105025,
              39.79050610663347
            ],
            [
              -105.27621428001287,
              39.78687680613761
            ],
            [
              -105.27616357994494,
              39.78324750527373
            ],
            [
              -105.2760885795857,
              39.77961420469436
            ],
            [
              -105.2760134792796,
              39.775981004225784
            ],
            [
              -105.27593837889022,
              39.77234770412781
            ],
            [
              -105.27586337815272,
              39.768714503649555
            ],
            [
              -105.27576287747226,
              39.76509570330597
            ],
            [
              -105.27566247732989,
              39.76147680266427
            ],
            [
              -105.27556207671472,
              39.757858001492515
            ],
            [
              -105.27546167594065,
              39.75423920163442
            ],
            [
              -105.27544027615069,
              39.75053890079589
            ],
            [
              -105.27541897544158,
              39.746838600465175
            ],
            [
              -105.27539777528742,
              39.743138199786365
            ],
            [
              -105.27537647437023,
              39.73943789923886
            ],
            [
              -105.27542227389088,
              39.73579309921726
            ],
            [
              -105.2754680744699,
              39.73214829882664
            ],
            [
              -105.27551377346055,
              39.72850349788599
            ],
            [
              -105.27555957265933,
              39.72485869769601
            ],
            [
              -105.27557797256797,
              39.72119489659226
            ],
            [
              -105.2755963717039,
              39.717531096035586
            ],
            [
              -105.27561477123335,
              39.71386729604337
            ],
            [
              -105.27563317115927,
              39.710203495729935
            ],
            [
              -105.27565407101802,
              39.706583995121626
            ],
            [
              -105.27567507014975,
              39.70296449452571
            ],
            [
              -105.27569597000716,
              39.69934509355338
            ],
            [
              -105.27571686949652,
              39.695725493382675
            ],
            [
              -105.27570756971143,
              39.69210609307464
            ],
            [
              -105.27569836943513,
              39.68848649288368
            ],
            [
              -105.27568906835673,
              39.684866992369024
            ],
            [
              -105.27567986847234,
              39.681247491054265
            ],
            [
              -105.27576526711715,
              39.67765909065021
            ],
            [
              -105.2758507674239,
              39.67407079038801
            ],
            [
              -105.27593616722285,
              39.67048238994407
            ],
            [
              -105.27602156643596,
              39.66689398949921
            ],
            [
              -105.27603256621424,
              39.663326689191756
            ],
            [
              -105.27604346581035,
              39.65975938882039
            ],
            [
              -105.27605446566331,
              39.65619208788021
            ],
            [
              -105.27606546438442,
              39.652624787092726
            ],
            [
              -105.27661236485683,
              39.64897348718778
            ],
            [
              -105.27713276405001,
              39.64540948667494
            ],
            [
              -105.27720866368121,
              39.64186088627184
            ],
            [
              -105.27728326295814,
              39.63831178553856
            ],
            [
              -105.27751166278019,
              39.63473598515825
            ],
            [
              -105.2777399621406,
              39.63116028438282
            ],
            [
              -105.27796826185458,
              39.627584484362906
            ],
            [
              -105.27819656161104,
              39.62400868328789
            ],
            [
              -105.27817686185698,
              39.62041728311378
            ],
            [
              -105.27815726108183,
              39.61682578247712
            ],
            [
              -105.27813756066679,
              39.6132343818738
            ],
            [
              -105.27811796006654,
              39.6096429817169
            ],
            [
              -105.27810355930232,
              39.60599298086073
            ],
            [
              -105.27808905925191,
              39.602343180825244
            ],
            [
              -105.27807465881186,
              39.59869328026446
            ],
            [
              -105.2780601585658,
              39.59504337969552
            ],
            [
              -105.27413065729583,
              39.59502187995502
            ],
            [
              -105.26945685676411,
              39.594996880252594
            ],
            [
              -105.26479145564524,
              39.594975279954596
            ],
            [
              -105.2601259539771,
              39.59495378051081
            ],
            [
              -105.2554962535051,
              39.594961381191965
            ],
            [
              -105.25086655220854,
              39.59496908126141
            ],
            [
              -105.24623685077454,
              39.59497668166352
            ],
            [
              -105.24160705068103,
              39.59498438213942
            ],
            [
              -105.23723204869896,
              39.59499098255711
            ],
            [
              -105.23285694827518,
              39.594997682757324
            ],
            [
              -105.22816754729837,
              39.59499338318958
            ],
            [
              -105.22347814656754,
              39.59498898281694
            ],
            [
              -105.21863234478518,
              39.59500528361239
            ],
            [
              -105.21378644373118,
              39.595021484177686
            ],
            [
              -105.20894064283422,
              39.59503778405236
            ],
            [
              -105.20409484118625,
              39.59505408481721
            ],
            [
              -105.1992441403405,
              39.595014184790024
            ],
            [
              -105.19439343905105,
              39.594974385208104
            ],
            [
              -105.18953573787076,
              39.59493838570684
            ],
            [
              -105.1846780365711,
              39.59490228611554
            ],
            [
              -105.18470693698717,
              39.59126908505899
            ],
            [
              -105.18473583600401,
              39.58763578517564
            ],
            [
              -105.1847586358158,
              39.5840346841936
            ],
            [
              -105.18478143559956,
              39.58043358357155
            ],
            [
              -105.18472523461789,
              39.576832983650945
            ],
            [
              -105.18466893462924,
              39.57323238290924
            ],
            [
              -105.18505543474353,
              39.569633282190665
            ],
            [
              -105.18544193411694,
              39.56603408164432
            ],
            [
              -105.18634623419278,
              39.56603568198679
            ],
            [
              -105.18558943349203,
              39.56241438124568
            ],
            [
              -105.18483103257665,
              39.558789481234584
            ],
            [
              -105.1848427331022,
              39.555199180394936
            ],
            [
              -105.18485443241303,
              39.55160888005109
            ],
            [
              -105.18525293175755,
              39.547860079035885
            ],
            [
              -105.18565143163967,
              39.544111278751316
            ],
            [
              -105.18604993090017,
              39.540362478309504
            ],
            [
              -105.18644843070251,
              39.536613677729534
            ],
            [
              -105.18647643055219,
              39.53297597705474
            ],
            [
              -105.18650442981252,
              39.529338276860145
            ],
            [
              -105.18653242920516,
              39.52570067624305
            ],
            [
              -105.18656042961705,
              39.522062976158765
            ],
            [
              -105.18652452837962,
              39.51937297534037
            ],
            [
              -105.18652282896409,
              39.51924487561801
            ],
            [
              -105.1865127288954,
              39.518488075253735
            ],
            [
              -105.1864661288788,
              39.51499607439165
            ],
            [
              -105.18646502790352,
              39.514913274972365
            ],
            [
              -105.1864540277532,
              39.51409307475527
            ],
            [
              -105.18644072792141,
              39.51309797415175
            ],
            [
              -105.18643332774303,
              39.51254387489039
            ],
            [
              -105.18642292812855,
              39.51176417458765
            ],
            [
              -105.18641722753249,
              39.51133837419995
            ],
            [
              -105.18641072778222,
              39.510846373811795
            ],
            [
              -105.18636952734965,
              39.50776347346543
            ],
            [
              -105.18629922658181,
              39.50410057300357
            ],
            [
              -105.18622892658134,
              39.50043757304359
            ],
            [
              -105.18617482574018,
              39.49684597265865
            ],
            [
              -105.18612072575397,
              39.49325437206045
            ],
            [
              -105.18586212579993,
              39.489484571087445
            ],
            [
              -105.18560362487268,
              39.485714671026415
            ],
            [
              -105.18534502446803,
              39.481944870425586
            ],
            [
              -105.18508652424661,
              39.47817496987189
            ],
            [
              -105.18040562221941,
              39.47817077041945
            ],
            [
              -105.1757246215702,
              39.47816647025321
            ],
            [
              -105.17104372011927,
              39.478162270782654
            ],
            [
              -105.16636272003069,
              39.47815797149115
            ],
            [
              -105.16139341847875,
              39.47816237101411
            ],
            [
              -105.15676711680815,
              39.4781660721518
            ],
            [
              -105.15214091671798,
              39.47816987204909
            ],
            [
              -105.14751461526376,
              39.47817367282742
            ],
            [
              -105.1428949136993,
              39.47817667250762
            ],
            [
              -105.1382752131381,
              39.47817967298829
            ],
            [
              -105.13365551241054,
              39.47818267336524
            ],
            [
              -105.12903581034232,
              39.4781856736347
            ],
            [
              -105.12786751049713,
              39.47818577361945
            ],
            [
              -105.12669930991112,
              39.47818577400356
            ],
            [
              -105.1255310104687,
              39.47818577414007
            ],
            [
              -105.12436260931173,
              39.47818587399979
            ],
            [
              -105.1243138099123,
              39.47818587434593
            ],
            [
              -105.11974570822905,
              39.47820457386064
            ],
            [
              -105.115130007992,
              39.47822367501797
            ],
            [
              -105.11051430659022,
              39.47824277458908
            ],
            [
              -105.10595980577972,
              39.478209875466376
            ],
            [
              -105.10140520479445,
              39.478176975582386
            ],
            [
              -105.09667270378678,
              39.47817117574026
            ],
            [
              -105.09194020246478,
              39.47816537579859
            ],
            [
              -105.0918887022817,
              39.474353275966315
            ],
            [
              -105.09184000145173,
              39.47074267507165
            ],
            [
              -105.09178890131274,
              39.46714387452248
            ],
            [
              -105.09173780056585,
              39.46354507385757
            ],
            [
              -105.09174210061063,
              39.45993417352166
            ],
            [
              -105.09174639961132,
              39.456323173130684
            ],
            [
              -105.09175069931226,
              39.45271217268863
            ],
            [
              -105.0917549991337,
              39.4491012721918
            ],
            [
              -105.09175999854497,
              39.445497272104255
            ],
            [
              -105.09176509849564,
              39.44189327147018
            ],
            [
              -105.09177009742444,
              39.43828937048656
            ],
            [
              -105.09177519745658,
              39.43468536990371
            ],
            [
              -105.09179419737733,
              39.43106786946637
            ],
            [
              -105.09181309601571,
              39.42745026962913
            ],
            [
              -105.09183209664877,
              39.42383276838154
            ],
            [
              -105.09185109588397,
              39.420215168110914
            ],
            [
              -105.0917974951625,
              39.41660836728249
            ],
            [
              -105.09174389525705,
              39.413001567425745
            ],
            [
              -105.09169029443494,
              39.40939466676256
            ],
            [
              -105.09163669385474,
              39.40578786618191
            ],
            [
              -105.08697369281927,
              39.40579056622973
            ],
            [
              -105.08231059164117,
              39.40579326670183
            ],
            [
              -105.07764749072888,
              39.405796067032846
            ],
            [
              -105.07298448995448,
              39.40579876761682
            ],
            [
              -105.06831878860936,
              39.40581806738132
            ],
            [
              -105.06365308821107,
              39.40583736772401
            ],
            [
              -105.05898738642495,
              39.40585666863652
            ],
            [
              -105.05432178595468,
              39.40587606869334
            ],
            [
              -105.04970948389584,
              39.405855869331354
            ],
            [
              -105.04502678325483,
              39.405835369731896
            ],
            [
              -105.04033128196997,
              39.40581767001768
            ],
            [
              -105.03563578065459,
              39.405799970278984
            ],
            [
              -105.03097517982422,
              39.405806570746556
            ],
            [
              -105.02631447868262,
              39.405813270868535
            ],
            [
              -105.02165387758934,
              39.40581997056519
            ],
            [
              -105.01699317633107,
              39.40582657173968
            ],
            [
              -105.01234867629047,
              39.40582697198781
            ],
            [
              -105.007704174463,
              39.40582727179246
            ],
            [
              -105.00305957422465,
              39.40582767251588
            ],
            [
              -104.99841507249742,
              39.40582807230208
            ],
            [
              -104.99375947165011,
              39.40583167273862
            ],
            [
              -104.98910397045128,
              39.4058353731663
            ],
            [
              -104.9844484697471,
              39.40583907317485
            ],
            [
              -104.97979286849788,
              39.405842774117225
            ],
            [
              -104.9751378670289,
              39.405841774385486
            ],
            [
              -104.97048286588779,
              39.40584087425701
            ],
            [
              -104.96582786463236,
              39.40583997464479
            ],
            [
              -104.96117286441142,
              39.40583907555419
            ],
            [
              -104.95649156248061,
              39.40584447562272
            ],
            [
              -104.9518102622541,
              39.40584997591062
            ],
            [
              -104.9471289606238,
              39.405855376431816
            ],
            [
              -104.94244765950562,
              39.40586087626644
            ],
            [
              -104.93801125827592,
              39.40587337630534
            ],
            [
              -104.93334135806633,
              39.40588797722821
            ],
            [
              -104.92867095643709,
              39.40593077741879
            ],
            [
              -104.9258344420757,
              39.405956793886595
            ],
            [
              -104.92400055575114,
              39.40597357783367
            ],
            [
              -104.92398485592824,
              39.409611278248406
            ],
            [
              -104.9239692566481,
              39.41324897834282
            ],
            [
              -104.92395355666957,
              39.41688657892815
            ],
            [
              -104.9239378565458,
              39.420524279555096
            ],
            [
              -104.92387825787712,
              39.42419488026638
            ],
            [
              -104.92381875797996,
              39.42786528054782
            ],
            [
              -104.92375915845201,
              39.43153588115226
            ],
            [
              -104.92371712685,
              39.43412444864774
            ],
            [
              -104.92369955814799,
              39.43520638169337
            ],
            [
              -104.91906955760473,
              39.435235481942655
            ],
            [
              -104.91443955637469,
              39.43526458208163
            ],
            [
              -104.90980955559982,
              39.435293683016894
            ],
            [
              -104.90517965401607,
              39.43532278344866
            ],
            [
              -104.90047205285981,
              39.435308983346786
            ],
            [
              -104.89576435203595,
              39.435295183617214
            ],
            [
              -104.89105675132834,
              39.43528138438554
            ],
            [
              -104.88634914967612,
              39.43526758423368
            ],
            [
              -104.88166154947956,
              39.435200384729825
            ],
            [
              -104.87697384738712,
              39.4351331853338
            ],
            [
              -104.87228624694562,
              39.43506608530784
            ],
            [
              -104.86759864536151,
              39.434998885938874
            ],
            [
              -104.86292054448333,
              39.434977585506026
            ],
            [
              -104.85824254347173,
              39.43495628616126
            ],
            [
              -104.85356444252689,
              39.434934986814014
            ],
            [
              -104.84888644167758,
              39.434913786748304
            ],
            [
              -104.844216339902,
              39.43489518694464
            ],
            [
              -104.83954613895492,
              39.43487658776293
            ],
            [
              -104.83487613852931,
              39.43485798819039
            ],
            [
              -104.83020593669966,
              39.43483938775447
            ],
            [
              -104.82635453594719,
              39.43483538839848
            ],
            [
              -104.82167993497244,
              39.43483108828844
            ],
            [
              -104.81700423373725,
              39.434823089415445
            ],
            [
              -104.81232843303337,
              39.434815088899285
            ],
            [
              -104.80766933137544,
              39.43481968968495
            ],
            [
              -104.80301023077884,
              39.4348242898494
            ],
            [
              -104.79835102916321,
              39.43482899056937
            ],
            [
              -104.7936919283141,
              39.43483359037464
            ],
            [
              -104.78901352793822,
              39.4348524911788
            ],
            [
              -104.78433512650892,
              39.434871291638
            ],
            [
              -104.77965672547366,
              39.43489019173387
            ],
            [
              -104.7749783246677,
              39.43490909147942
            ],
            [
              -104.77030802364204,
              39.434904592233316
            ],
            [
              -104.76563762255046,
              39.434900092635644
            ],
            [
              -104.76096732106265,
              39.43489549304675
            ],
            [
              -104.7562970195058,
              39.434890992818936
            ],
            [
              -104.75161521865913,
              39.434882793763315
            ],
            [
              -104.74693341799019,
              39.43487449407676
            ],
            [
              -104.74225161643132,
              39.43486619373915
            ],
            [
              -104.73756981511215,
              39.434857894559215
            ],
            [
              -104.73288411496374,
              39.43481989472387
            ],
            [
              -104.72819841305167,
              39.43478169482037
            ],
            [
              -104.72351271195458,
              39.4347436957138
            ],
            [
              -104.71882691157934,
              39.43470559587498
            ],
            [
              -104.71420031055231,
              39.434692996104296
            ],
            [
              -104.7095268086252,
              39.43468029619695
            ],
            [
              -104.70485150864566,
              39.434662196503396
            ],
            [
              -104.70017630653264,
              39.43464409734283
            ],
            [
              -104.69549310638433,
              39.434629097681295
            ],
            [
              -104.69080980503755,
              39.434614097457974
            ],
            [
              -104.68612660342453,
              39.43459909805655
            ],
            [
              -104.6814433029115,
              39.434583998113666
            ],
            [
              -104.67675410206594,
              39.43453969834467
            ],
            [
              -104.67206480038037,
              39.43449539839277
            ],
            [
              -104.66737549887507,
              39.434451198951095
            ],
            [
              -104.66452380951765,
              39.43442428154275
            ],
            [
              -104.6626862986345,
              39.434406899866126
            ],
            [
              -104.66266399921516,
              39.438035499758236
            ],
            [
              -104.66264169860658,
              39.44166410053803
            ],
            [
              -104.66261939914261,
              39.44529270130671
            ],
            [
              -104.66259709967245,
              39.448921301140736
            ],
            [
              -104.66256140053315,
              39.452555501724014
            ],
            [
              -104.66252570115229,
              39.45618970223439
            ],
            [
              -104.66248990159204,
              39.45982390284358
            ],
            [
              -104.66245420169561,
              39.463458203150395
            ],
            [
              -104.66244760247636,
              39.467078304217075
            ],
            [
              -104.66244100254646,
              39.47069840426597
            ],
            [
              -104.66243780236564,
              39.474319804884736
            ],
            [
              -104.66243430289424,
              39.47802260561049
            ],
            [
              -104.66236080372964,
              39.481651106104565
            ],
            [
              -104.6622873039469,
              39.48527950642365
            ],
            [
              -104.66221370470198,
              39.488907906733935
            ],
            [
              -104.66214020477481,
              39.49253630754051
            ],
            [
              -104.66207680477625,
              39.49617470771669
            ],
            [
              -104.66201340517254,
              39.49981300855127
            ],
            [
              -104.6619499059192,
              39.50345140928598
            ],
            [
              -104.66188650587547,
              39.5070898095398
            ],
            [
              -104.66181960618333,
              39.5107273098311
            ],
            [
              -104.66175999448106,
              39.513968684156445
            ],
            [
              -104.66175270763271,
              39.51436491069867
            ],
            [
              -104.66168580796499,
              39.51800241124018
            ],
            [
              -104.66161890831474,
              39.52163991143442
            ],
            [
              -104.66155100799287,
              39.52526661204404
            ],
            [
              -104.66148290866846,
              39.52889341266383
            ],
            [
              -104.66141500935838,
              39.5325201134592
            ],
            [
              -104.66134700990823,
              39.53614691404111
            ],
            [
              -104.66127990939046,
              39.53975461460061
            ],
            [
              -104.66121281006058,
              39.543362414783026
            ],
            [
              -104.66114571080257,
              39.546970115497764
            ],
            [
              -104.66107861156907,
              39.55057791579806
            ],
            [
              -104.66104331115535,
              39.55417821632394
            ],
            [
              -104.66100801173833,
              39.5577785164503
            ],
            [
              -104.66099031246078,
              39.56138991768137
            ],
            [
              -104.66096557023567,
              39.56539982757993
            ],
            [
              -104.66096231300595,
              39.56592761834494
            ],
            [
              -104.6565934122221,
              39.56590661849552
            ],
            [
              -104.6519299105443,
              39.56588421858598
            ],
            [
              -104.65164211082471,
              39.56588411859427
            ],
            [
              -104.64726631004048,
              39.56586311889523
            ],
            [
              -104.64260270854498,
              39.56584061876126
            ],
            [
              -104.64232200900337,
              39.5658406189418
            ],
            [
              -104.6379350072956,
              39.56579821987063
            ],
            [
              -104.63326730662322,
              39.565753119506546
            ],
            [
              -104.63305670608554,
              39.56575311973806
            ],
            [
              -104.6285997049456,
              39.5657097203961
            ],
            [
              -104.62393220381489,
              39.56566432045085
            ],
            [
              -104.6237918046672,
              39.56566431999733
            ],
            [
              -104.61926550270333,
              39.56558062077166
            ],
            [
              -104.61459880238144,
              39.5654943214366
            ],
            [
              -104.61452860232212,
              39.56549432149877
            ],
            [
              -104.60993230133167,
              39.56540872162532
            ],
            [
              -104.60526580023291,
              39.56532182195793
            ],
            [
              -104.6018034985818,
              39.56530342186658
            ],
            [
              -104.60058669905439,
              39.565301121614965
            ],
            [
              -104.59712439787387,
              39.565282722203264
            ],
            [
              -104.59590769715858,
              39.565280421941715
            ],
            [
              -104.59123029676597,
              39.56522192243648
            ],
            [
              -104.58777039634816,
              39.565178722595455
            ],
            [
              -104.58655279559906,
              39.56517822255916
            ],
            [
              -104.58187279386452,
              39.56511612308129
            ],
            [
              -104.57838629380875,
              39.56507002351007
            ],
            [
              -104.57719279287716,
              39.56506762310909
            ],
            [
              -104.57251229229708,
              39.56500542379216
            ],
            [
              -104.56900299187748,
              39.56495882379167
            ],
            [
              -104.56783179088697,
              39.56495882453815
            ],
            [
              -104.5631549898067,
              39.56486782440437
            ],
            [
              -104.55969368879671,
              39.564800425049725
            ],
            [
              -104.55847808880112,
              39.56479682495307
            ],
            [
              -104.55380138734412,
              39.564706324672734
            ],
            [
              -104.55038558727384,
              39.56464022542108
            ],
            [
              -104.54912458666799,
              39.56463892553705
            ],
            [
              -104.54446998575261,
              39.56458232540144
            ],
            [
              -104.54113968496017,
              39.56454192579514
            ],
            [
              -104.5398153844772,
              39.56453932594553
            ],
            [
              -104.53516028320522,
              39.56448312616876
            ],
            [
              -104.53189398318132,
              39.56444382616503
            ],
            [
              -104.53050528241411,
              39.56444092691992
            ],
            [
              -104.52586618085074,
              39.564384026680735
            ],
            [
              -104.52267888075164,
              39.56434502672734
            ],
            [
              -104.5212271800984,
              39.564341727272684
            ],
            [
              -104.51658637903435,
              39.56428532781509
            ],
            [
              -104.51346387857015,
              39.564247427564744
            ],
            [
              -104.51194547788349,
              39.56424492808403
            ],
            [
              -104.50731777655376,
              39.56418352796004
            ],
            [
              -104.50423397602826,
              39.56414272874669
            ],
            [
              -104.5026899756089,
              39.56413872851845
            ],
            [
              -104.49804997429646,
              39.56407752851416
            ],
            [
              -104.49552702532183,
              39.56404420373029
            ],
            [
              -104.49500707418989,
              39.56403732866639
            ],
            [
              -104.4934100741026,
              39.56403492876538
            ],
            [
              -104.49326777418705,
              39.56765682925133
            ],
            [
              -104.49312557450335,
              39.57127883001128
            ],
            [
              -104.49298327541236,
              39.57490073024808
            ],
            [
              -104.49284107538645,
              39.5785227316204
            ],
            [
              -104.49273187599455,
              39.582154432138374
            ],
            [
              -104.49262267574346,
              39.5857861320387
            ],
            [
              -104.49251357589365,
              39.589417833076396
            ],
            [
              -104.49240437623149,
              39.59304953351888
            ],
            [
              -104.4923366772914,
              39.596685433905755
            ],
            [
              -104.49226907813585,
              39.600321434480314
            ],
            [
              -104.49220147802453,
              39.60395733439429
            ],
            [
              -104.4921337785731,
              39.60759333545977
            ],
            [
              -104.49202887919027,
              39.61122763571089
            ],
            [
              -104.49192387894317,
              39.614862036152005
            ],
            [
              -104.49181897957781,
              39.61849643671408
            ],
            [
              -104.49171397987746,
              39.622130737473
            ],
            [
              -104.49161428094101,
              39.625761537592794
            ],
            [
              -104.49151458120953,
              39.629392238747705
            ],
            [
              -104.4914149806229,
              39.633022939062656
            ],
            [
              -104.49131528113384,
              39.63665363952496
            ],
            [
              -104.49122748172657,
              39.640270540069594
            ],
            [
              -104.49113968253135,
              39.64388744072421
            ],
            [
              -104.4910957830463,
              39.64750714049965
            ],
            [
              -104.49105178340825,
              39.651126841299366
            ],
            [
              -104.49097458404451,
              39.654735641844375
            ],
            [
              -104.4908973834007,
              39.65834454243642
            ],
            [
              -104.4908200841244,
              39.66195334316064
            ],
            [
              -104.49074288522532,
              39.66556214389257
            ],
            [
              -104.49064288498056,
              39.66916804394327
            ],
            [
              -104.49054288514655,
              39.672773844926844
            ],
            [
              -104.49044288637077,
              39.676379744997234
            ],
            [
              -104.49034288684062,
              39.679985545961905
            ],
            [
              -104.49029418665843,
              39.68362314569257
            ],
            [
              -104.4902455871685,
              39.6872608461621
            ],
            [
              -104.49019698722604,
              39.69089854740598
            ],
            [
              -104.49014838829544,
              39.694536147639155
            ],
            [
              -104.49007358777519,
              39.6981689478875
            ],
            [
              -104.48999868847739,
              39.70180174893047
            ],
            [
              -104.48992388865634,
              39.70543454885315
            ],
            [
              -104.48984899004753,
              39.70906734954087
            ],
            [
              -104.48978629010577,
              39.71268505052634
            ],
            [
              -104.4897234900662,
              39.716302850457815
            ],
            [
              -104.48966069074282,
              39.71992055112604
            ],
            [
              -104.489597890709,
              39.72353825158425
            ],
            [
              -104.48958399157306,
              39.72714875171259
            ],
            [
              -104.4895699914971,
              39.73075935252996
            ],
            [
              -104.48956299208355,
              39.7343758534955
            ],
            [
              -104.48955599333662,
              39.73799225331092
            ],
            [
              -104.48946409366819,
              39.74161945384208
            ],
            [
              -104.48937209340396,
              39.745246654981976
            ],
            [
              -104.489280094071,
              39.748873854885495
            ],
            [
              -104.48918819483195,
              39.75250105529043
            ],
            [
              -104.4891868953497,
              39.75613095647715
            ],
            [
              -104.48918549531548,
              39.7597608563967
            ],
            [
              -104.48918419542923,
              39.763390756758035
            ],
            [
              -104.48918279584721,
              39.767020757610354
            ],
            [
              -104.48918959622335,
              39.77065355846889
            ],
            [
              -104.48919639696513,
              39.77428645883096
            ],
            [
              -104.48920329783269,
              39.7779192595813
            ],
            [
              -104.48920999828277,
              39.781552159883056
            ],
            [
              -104.48923129808547,
              39.78517966007709
            ],
            [
              -104.48925259857342,
              39.788807260616984
            ],
            [
              -104.4892737996089,
              39.79243486155103
            ],
            [
              -104.48929509996383,
              39.79606236189102
            ],
            [
              -104.48929019931448,
              39.79967496262719
            ],
            [
              -104.48928540085804,
              39.803287562810844
            ],
            [
              -104.48929700051114,
              39.80692816347004
            ],
            [
              -104.48930860103052,
              39.810568863461306
            ],
            [
              -104.48931480188611,
              39.81419646451854
            ],
            [
              -104.48932110143211,
              39.8178240648822
            ],
            [
              -104.48932490238671,
              39.82145106491337
            ],
            [
              -104.4893287024761,
              39.82507806607364
            ],
            [
              -104.48929320291958,
              39.82868336602905
            ],
            [
              -104.48925780386587,
              39.83228856716303
            ],
            [
              -104.4892223038581,
              39.835893867685556
            ],
            [
              -104.48918690438946,
              39.83949906755703
            ],
            [
              -104.48916000458551,
              39.84313626797616
            ],
            [
              -104.4891332059046,
              39.846773468501716
            ],
            [
              -104.4891063062029,
              39.85041066918635
            ],
            [
              -104.48907940569067,
              39.85404796994942
            ],
            [
              -104.48905020622838,
              39.85768387035197
            ],
            [
              -104.48902090754346,
              39.86131987086442
            ],
            [
              -104.4889916069058,
              39.86495587143031
            ],
            [
              -104.4889624083428,
              39.8685918720262
            ],
            [
              -104.48896120869286,
              39.87222547200372
            ],
            [
              -104.48896000855231,
              39.875859172867216
            ],
            [
              -104.48895880965316,
              39.87949277376704
            ],
            [
              -104.48895751002198,
              39.88312637378867
            ],
            [
              -104.48897571026859,
              39.88675877465684
            ],
            [
              -104.48899371006465,
              39.89039117464667
            ],
            [
              -104.48903381045224,
              39.894022475165364
            ],
            [
              -104.48907381174708,
              39.897653875591814
            ],
            [
              -104.48909901139488,
              39.90128527601882
            ],
            [
              -104.48912411211244,
              39.90491657640004
            ],
            [
              -104.48915241212316,
              39.908547277199474
            ],
            [
              -104.4891808135136,
              39.912177877837095
            ],
            [
              -104.48921431347709,
              39.915806078509206
            ],
            [
              -104.48924791364882,
              39.91943437892568
            ],
            [
              -104.48928151399441,
              39.923062579169894
            ],
            [
              -104.48931501479044,
              39.92669078014703
            ],
            [
              -104.48935911515065,
              39.93031878076872
            ],
            [
              -104.48940331504964,
              39.933946681109454
            ],
            [
              -104.48944741622144,
              39.93757468120187
            ],
            [
              -104.48949161692931,
              39.941202581884674
            ],
            [
              -104.48953151725259,
              39.944852182496646
            ],
            [
              -104.48957131779102,
              39.9485016828027
            ],
            [
              -104.48961101832393,
              39.952134982918615
            ],
            [
              -104.48965071848592,
              39.95576818360189
            ],
            [
              -104.48969841849691,
              39.959385683995436
            ],
            [
              -104.48974601918536,
              39.96300318498874
            ],
            [
              -104.48979361914516,
              39.96662058563922
            ],
            [
              -104.48984122016833,
              39.97023808588893
            ],
            [
              -104.48988672044867,
              39.97385588659582
            ],
            [
              -104.4899322209535,
              39.97747358692726
            ],
            [
              -104.48997772112156,
              39.98109138770485
            ],
            [
              -104.49002322124007,
              39.98470918804558
            ],
            [
              -104.4900659217211,
              39.9883265884323
            ],
            [
              -104.49010872283516,
              39.99194388834956
            ],
            [
              -104.49015402357709,
              39.995562488951414
            ],
            [
              -104.4902164232724,
              40.00066779016342
            ],
            [
              -104.49489452470607,
              40.00066178935582
            ],
            [
              -104.49921102599853,
              40.00065618945833
            ],
            [
              -104.4995726259067,
              40.0006558896845
            ],
            [
              -104.50425072718072,
              40.0006476891964
            ],
            [
              -104.5086368274682,
              40.00064008902922
            ],
            [
              -104.50892892794873,
              40.000639888788704
            ],
            [
              -104.5136660289582,
              40.00063798871048
            ],
            [
              -104.51806742998379,
              40.00063618769422
            ],
            [
              -104.51840313055291,
              40.00063608780053
            ],
            [
              -104.52314023177607,
              40.000634087883405
            ],
            [
              -104.5274980323411,
              40.000632387255884
            ],
            [
              -104.52787733220563,
              40.00063218709169
            ],
            [
              -104.53262433407303,
              40.000628287027425
            ],
            [
              -104.53692733472552,
              40.00062478644894
            ],
            [
              -104.53737133448983,
              40.00062468702839
            ],
            [
              -104.54211833605737,
              40.000621886056805
            ],
            [
              -104.5463613362276,
              40.00061938620218
            ],
            [
              -104.54686533714909,
              40.00061898618365
            ],
            [
              -104.55155113807079,
              40.000615085342055
            ],
            [
              -104.55578583915789,
              40.00061148505773
            ],
            [
              -104.5562369389133,
              40.000611484959656
            ],
            [
              -104.56092274010484,
              40.00061068514577
            ],
            [
              -104.56521754111274,
              40.000609884950336
            ],
            [
              -104.56560854103745,
              40.00060988498061
            ],
            [
              -104.57030334243885,
              40.000609784835746
            ],
            [
              -104.57463424337239,
              40.00060968381184
            ],
            [
              -104.57499814369999,
              40.00060968362491
            ],
            [
              -104.57969284497268,
              40.0006089834638
            ],
            [
              -104.5840507452493,
              40.00060828373685
            ],
            [
              -104.58438764557812,
              40.00060828301617
            ],
            [
              -104.58909584648619,
              40.00060828284906
            ],
            [
              -104.59346724790281,
              40.00060838275089
            ],
            [
              -104.59380404716826,
              40.00060838231732
            ],
            [
              -104.59817544879263,
              40.00060838273746
            ],
            [
              -104.5985122490541,
              40.00060838239664
            ],
            [
              -104.60288364960628,
              40.000608382392464
            ],
            [
              -104.60760395114976,
              40.00060358192384
            ],
            [
              -104.6123243525831,
              40.00059888178203
            ],
            [
              -104.61234195216579,
              40.000598881651165
            ],
            [
              -104.6138799823192,
              40.00059733207035
            ],
            [
              -104.61704455317236,
              40.00059408157275
            ],
            [
              -104.62176475416142,
              40.00058938095032
            ],
            [
              -104.62180005399924,
              40.00058938042264
            ],
            [
              -104.62648315578143,
              40.00059058003124
            ],
            [
              -104.63120165597113,
              40.000591680524074
            ],
            [
              -104.63124295617953,
              40.000591679879946
            ],
            [
              -104.63592015742749,
              40.00059287983895
            ],
            [
              -104.64063855840718,
              40.00059397910171
            ],
            [
              -104.64068565871308,
              40.00059397952755
            ],
            [
              -104.64535145972307,
              40.00058957884994
            ],
            [
              -104.65006446124123,
              40.00058507864931
            ],
            [
              -104.65012326132855,
              40.000585078442064
            ],
            [
              -104.65477726196363,
              40.00058057810261
            ],
            [
              -104.65949016284415,
              40.00057607847448
            ],
            [
              -104.65956086292913,
              40.000576078090965
            ],
            [
              -104.66421176395579,
              40.000576377785265
            ],
            [
              -104.66893326566519,
              40.00057657772908
            ],
            [
              -104.66899336548313,
              40.00057657727322
            ],
            [
              -104.67365486587384,
              40.00057677696756
            ],
            [
              -104.67837636784061,
              40.00057707678912
            ],
            [
              -104.67842586740282,
              40.00057707705418
            ],
            [
              -104.68307086832819,
              40.00057857630632
            ],
            [
              -104.68776536916891,
              40.000580076582374
            ],
            [
              -104.68785486997848,
              40.000580075966006
            ],
            [
              -104.69245987039622,
              40.00058157581626
            ],
            [
              -104.69715437200192,
              40.00058307580892
            ],
            [
              -104.69728397233831,
              40.00058307581136
            ],
            [
              -104.7018669729145,
              40.0005867756404
            ],
            [
              -104.70657947381699,
              40.0005904750134
            ],
            [
              -104.70670907405395,
              40.000590474580946
            ],
            [
              -104.71129107527166,
              40.00059227463889
            ],
            [
              -104.7114205747396,
              40.00059227466864
            ],
            [
              -104.71462427598964,
              40.000593174522116
            ],
            [
              -104.71613247604206,
              40.00059337434884
            ],
            [
              -104.71938447646298,
              40.00059037418133
            ],
            [
              -104.72414477767119,
              40.00058597324039
            ],
            [
              -104.72555937806865,
              40.000585773807785
            ],
            [
              -104.72890477943491,
              40.00058267357595
            ],
            [
              -104.73366478016405,
              40.00057827339358
            ],
            [
              -104.73498638080541,
              40.000577972791945
            ],
            [
              -104.73836218138675,
              40.00057147298834
            ],
            [
              -104.74305958242135,
              40.00056247205277
            ],
            [
              -104.74441648320963,
              40.00056207240436
            ],
            [
              -104.7477569834602,
              40.000555671810766
            ],
            [
              -104.75245428460167,
              40.00054677127591
            ],
            [
              -104.75384668504907,
              40.00054677165046
            ],
            [
              -104.75714818564315,
              40.00054027160438
            ],
            [
              -104.76184198717749,
              40.00053117119833
            ],
            [
              -104.76328028720056,
              40.00053057088459
            ],
            [
              -104.76653678807459,
              40.00052607105979
            ],
            [
              -104.7712315890984,
              40.00051947036572
            ],
            [
              -104.77271598890142,
              40.00051927012537
            ],
            [
              -104.7759238903028,
              40.000513470192374
            ],
            [
              -104.78061619123275,
              40.000505069967055
            ],
            [
              -104.78215489161623,
              40.000504569364715
            ],
            [
              -104.78530849237976,
              40.00049886903191
            ],
            [
              -104.7900006936893,
              40.000490469181365
            ],
            [
              -104.79159369345552,
              40.00048976853061
            ],
            [
              -104.79234652582468,
              40.0004878688077
            ],
            [
              -104.79471209402526,
              40.00048186880323
            ],
            [
              -104.79942349529172,
              40.00047006803892
            ],
            [
              -104.80103659573187,
              40.000469168335755
            ],
            [
              -104.80413489615502,
              40.00046136833407
            ],
            [
              -104.80884629753803,
              40.000449467342264
            ],
            [
              -104.81047939805495,
              40.00044846745688
            ],
            [
              -104.81356799845643,
              40.00044026705991
            ],
            [
              -104.81828959985984,
              40.00042786679504
            ],
            [
              -104.81992280053456,
              40.000426966585565
            ],
            [
              -104.82300460041604,
              40.00042366681681
            ],
            [
              -104.82463780147303,
              40.00042276626318
            ],
            [
              -104.82787540261275,
              40.00041916650961
            ],
            [
              -104.8293530021854,
              40.000418366269045
            ],
            [
              -104.83252890269898,
              40.00041396623713
            ],
            [
              -104.83718250446206,
              40.000407665513926
            ],
            [
              -104.838796804994,
              40.00040716560358
            ],
            [
              -104.84183570587894,
              40.00040306506945
            ],
            [
              -104.84648890680451,
              40.00039676473229
            ],
            [
              -104.84823980628649,
              40.0003965645138
            ],
            [
              -104.8512672071238,
              40.000395464860375
            ],
            [
              -104.85604550916109,
              40.00039376457502
            ],
            [
              -104.85767480849724,
              40.00039366392241
            ],
            [
              -104.86082380929255,
              40.00039256444586
            ],
            [
              -104.86560221040317,
              40.0003908635704
            ],
            [
              -104.86623652371655,
              40.00039069772219
            ],
            [
              -104.8671102108773,
              40.00039046397238
            ],
            [
              -104.87029571191792,
              40.00038896352773
            ],
            [
              -104.87498921274023,
              40.0003866626542
            ],
            [
              -104.87654421363308,
              40.00038656331267
            ],
            [
              -104.87968261402261,
              40.00038506275041
            ],
            [
              -104.88437601492464,
              40.0003827621297
            ],
            [
              -104.88597811551753,
              40.00038286241325
            ],
            [
              -104.88912021655233,
              40.00038666175236
            ],
            [
              -104.89386451735476,
              40.00039236163843
            ],
            [
              -104.89540751806719,
              40.00039266206318
            ],
            [
              -104.89860871894848,
              40.000396561015506
            ],
            [
              -104.90335291953706,
              40.00040226114587
            ],
            [
              -104.90483711997656,
              40.000402661014654
            ],
            [
              -104.90805332103677,
              40.000410061184375
            ],
            [
              -104.91275362217466,
              40.000420960818445
            ],
            [
              -104.91426602207956,
              40.00042166068474
            ],
            [
              -104.9174539228004,
              40.00042895995009
            ],
            [
              -104.92215422353989,
              40.000439860153385
            ],
            [
              -104.92369502488705,
              40.000440659280216
            ],
            [
              -104.92686822543072,
              40.000453559494105
            ],
            [
              -104.93158222666297,
              40.0004725588622
            ],
            [
              -104.93312282703708,
              40.00047385904885
            ],
            [
              -104.93629412675013,
              40.00047895902806
            ],
            [
              -104.93783472766187,
              40.000480159037934
            ],
            [
              -104.94033902832295,
              40.000483458354196
            ],
            [
              -104.94254642876172,
              40.00048525877258
            ],
            [
              -104.94507832950845,
              40.00048945782403
            ],
            [
              -104.94725783022389,
              40.000492458447184
            ],
            [
              -104.94981753037418,
              40.00049665807806
            ],
            [
              -104.951969231175,
              40.00049965752263
            ],
            [
              -104.95455673111785,
              40.000503957276486
            ],
            [
              -104.95668063161364,
              40.00050685780008
            ],
            [
              -104.95929553204886,
              40.00051125722729
            ],
            [
              -104.9613924330105,
              40.00050785699752
            ],
            [
              -104.96399613372407,
              40.000502456963304
            ],
            [
              -104.9661048345256,
              40.000498956381115
            ],
            [
              -104.96869683465862,
              40.000493656518564
            ],
            [
              -104.97081733527543,
              40.00049005644299
            ],
            [
              -104.97339743537701,
              40.000484755927836
            ],
            [
              -104.9755297362091,
              40.00048115628741
            ],
            [
              -104.97809813695491,
              40.00047595602064
            ],
            [
              -104.98024183740405,
              40.00047095550743
            ],
            [
              -104.98282753779903,
              40.00046375535811
            ],
            [
              -104.98320227644803,
              40.00046291165739
            ],
            [
              -104.98495363877487,
              40.00045895521767
            ],
            [
              -104.98755693953545,
              40.0004516553415
            ],
            [
              -104.98966543948144,
              40.00044695520788
            ],
            [
              -104.99228644012707,
              40.000439554626
            ],
            [
              -104.99437714117553,
              40.00043495505707
            ],
            [
              -104.99701584168038,
              40.00042745415799
            ],
            [
              -104.99908944147735,
              40.00042185452427
            ],
            [
              -105.0017263424391,
              40.000412753916095
            ],
            [
              -105.0038029432731,
              40.00040715444793
            ],
            [
              -105.00643694363065,
              40.000397953616535
            ],
            [
              -105.00851634409071,
              40.000392354135236
            ],
            [
              -105.01114744477826,
              40.000383253246696
            ],
            [
              -105.01322964556822,
              40.00037755356916
            ],
            [
              -105.01585754565706,
              40.00036855342463
            ],
            [
              -105.01794364629215,
              40.000360553203265
            ],
            [
              -105.0205226472608,
              40.000348452515496
            ],
            [
              -105.02265814744733,
              40.000340052616274
            ],
            [
              -105.02518764820867,
              40.00032845245731
            ],
            [
              -105.0273726478812,
              40.00031975202562
            ],
            [
              -105.02985254921198,
              40.00030845239963
            ],
            [
              -105.03208714964939,
              40.00029935244701
            ],
            [
              -105.03451755036302,
              40.00028865217049
            ],
            [
              -105.03680125036858,
              40.000285851598
            ],
            [
              -105.03923145091686,
              40.00028285166105
            ],
            [
              -105.04151525167529,
              40.000280251234166
            ],
            [
              -105.0439454523575,
              40.00027725157972
            ],
            [
              -105.04622935234342,
              40.00027455139003
            ],
            [
              -105.04865945363636,
              40.000271550735164
            ],
            [
              -105.05094335383546,
              40.000268850362474
            ],
            [
              -105.05282395393306,
              40.0002670509425
            ],
            [
              -105.05565385517964,
              40.00026395039244
            ],
            [
              -105.05559615517753,
              40.00389145117276
            ],
            [
              -105.0555385557179,
              40.007518951823165
            ],
            [
              -105.05548095609755,
              40.01114645195008
            ],
            [
              -105.05542325675809,
              40.01477395206467
            ],
            [
              -105.05537065719803,
              40.01837475270179
            ],
            [
              -105.05531805685986,
              40.02197555375962
            ],
            [
              -105.055349857465,
              40.02564445404016
            ],
            [
              -105.05538155828353,
              40.02931335409614
            ],
            [
              -105.05541175818747,
              40.032953354939636
            ],
            [
              -105.05544185873762,
              40.03659325566575
            ],
            [
              -105.05546035929703,
              40.04023335611904
            ],
            [
              -105.05547876044405,
              40.04387335643438
            ],
            [
              -105.05548776053752,
              40.04767705655822
            ],
            [
              -105.05549676103047,
              40.05148065723265
            ],
            [
              -105.05548246129166,
              40.05495425787313
            ],
            [
              -105.05546816126737,
              40.0584278583138
            ],
            [
              -105.05547326235994,
              40.06213045903793
            ],
            [
              -105.05547836278156,
              40.06583305966157
            ],
            [
              -105.05547116335788,
              40.069424460074664
            ],
            [
              -105.0554638628806,
              40.07301596032485
            ],
            [
              -105.05545346363743,
              40.0766482610089
            ],
            [
              -105.05544306444963,
              40.08028056088158
            ],
            [
              -105.0554391651875,
              40.083890761625106
            ],
            [
              -105.05543536514409,
              40.08750096197446
            ],
            [
              -105.05543426500677,
              40.0911214630581
            ],
            [
              -105.05543306622657,
              40.09474196293834
            ],
            [
              -105.05543476690383,
              40.09835386373751
            ],
            [
              -105.05543636686723,
              40.101965764225405
            ],
            [
              -105.05543746707012,
              40.10560126497118
            ],
            [
              -105.0554385673476,
              40.10923676567325
            ],
            [
              -105.0554368678982,
              40.112871366073186
            ],
            [
              -105.0554352691082,
              40.11650596588131
            ],
            [
              -105.05541406865906,
              40.120155366870094
            ],
            [
              -105.05539296972007,
              40.12380486715057
            ],
            [
              -105.05538317043768,
              40.12742566769577
            ],
            [
              -105.0553733700975,
              40.1310464681593
            ],
            [
              -105.06012887141466,
              40.13100486762909
            ],
            [
              -105.06488437233737,
              40.13096316789244
            ],
            [
              -105.06956747352555,
              40.131270066837764
            ]
          ]
        ]
      },
      "properties": {
        "OBJECTID": 1,
        "notes": "Boundary delineated from BLM Township and Range data based on description from CO State Senate Bill # 104",
        "projection": "NAD 1983 Stateplane Colorado Central FIPS 0502 Feet",
        "area_ac": 1029427.50698451,
        "area_sqmi": 1608.48047987,
        "perimeter_ft": 1012516.3660368,
        "perimeter_mi": 191.76446326,
        "Shape__Area": 44841862204.24493,
        "Shape__Length": 1012516.3660367858
      }
    }
  ]
}
